[{"OBJECT_NAME":"OBJECT A","OBJECT_ID":"2025-310A","EPOCH":"2026-02-21T15:01:11.724096","MEAN_MOTION":14.75718788,"ECCENTRICITY":0.00037722,"INCLINATION":97.9674,"RA_OF_ASC_NODE":61.5806,"ARG_OF_PERICENTER":90.9436,"MEAN_ANOMALY":269.2206,"EPHEMERIS_TYPE":0,"CLASSIFICATION_TYPE":"U","NORAD_CAT_ID":67234,"ELEMENT_SET_NO":999,"REV_AT_EPOCH":858,"BSTAR":9.699469e-6,"MEAN_MOTION_DOT":1.6e-7,"MEAN_MOTION_DDOT":0},{"OBJECT_NAME":"NOAA 16 DEB","OBJECT_ID":"2000-055QZ","EPOCH":"2026-03-09T08:32:49.088544","MEAN_MOTION":14.77742387,"ECCENTRICITY":0.00049904,"INCLINATION":98.8,"RA_OF_ASC_NODE":207.2598,"ARG_OF_PERICENTER":301.0827,"MEAN_ANOMALY":58.9891,"EPHEMERIS_TYPE":0,"CLASSIFICATION_TYPE":"U","NORAD_CAT_ID":42357,"ELEMENT_SET_NO":999,"REV_AT_EPOCH":52297,"BSTAR":0.006325387,"MEAN_MOTION_DOT":0.00045611,"MEAN_MOTION_DDOT":0}]
